ORBCOMM FM05            
1 25117U 97084F   25296.57197816  .00002735  00000+0  79364-3 0  9990
2 25117  45.0125 111.4381 0003004 145.1989 214.9060 14.46419987459191
ORBCOMM FM06            
1 25118U 97084G   25296.56031365  .00002518  00000+0  73138-3 0  9998
2 25118  45.0117 111.0825 0001925 147.1543 260.1414 14.46575422460117
ORBCOMM FM07            
1 25119U 97084H   25296.56415996  .00002343  00000+0  68305-3 0  9991
2 25119  45.0112 111.8217 0003805 141.3044 218.8081 14.46592434460108
ORBCOMM FM03            
1 25158U 98007B   25296.56286078  .00001449  00000+0  55029-3 0  9992
2 25158 107.9631  39.3632 0043308  21.8107 338.4865 14.34830645442457
ORBCOMM FM04            
1 25159U 98007C   25296.52513186  .00001503  00000+0  56759-3 0  9994
2 25159 107.9620  42.5920 0039170  18.8271 341.4309 14.35073895442636
ORBCOMM FM17            
1 25413U 98046A   25296.61801585  .00001443  00000+0  54722-3 0  9994
2 25413  44.9956  11.3642 0003223 176.6877 183.3992 14.35376676421621
ORBCOMM FM18            
1 25414U 98046B   25296.39590161  .00001946  00000+0  67113-3 0  9991
2 25414  44.9924 286.3459 0005571 234.3507 125.6823 14.38939621422718
ORBCOMM FM19            
1 25415U 98046C   25296.38751368  .00001971  00000+0  68153-3 0  9992
2 25415  44.9943 288.5835 0004298 236.8039 268.2635 14.38754254422660
